OBJECT_NAME,OBJECT_ID,EPOCH,MEAN_MOTION,ECCENTRICITY,INCLINATION,RA_OF_ASC_NODE,ARG_OF_PERICENTER,MEAN_ANOMALY,EPHEMERIS_TYPE,CLASSIFICATION_TYPE,NORAD_CAT_ID,ELEMENT_SET_NO,REV_AT_EPOCH,BSTAR,MEAN_MOTION_DOT,MEAN_MOTION_DDOT
SITRO-AIS 12 (SMIRENNIY),2023-091AQ,2026-07-11T12:29:41.458272,15.39317442,.0004982,97.5087,263.8513,349.9858,10.1287,0,U,57204,999,16851,.30613E-3,.11867E-3,0
SITRO-AIS 11 (SHEFFER),2023-091AU,2026-07-11T11:05:34.492128,15.39758023,.0004881,97.5085,264.0536,349.6162,10.4982,0,U,57208,999,16852,.31274E-3,.12302E-3,0
H2SAT (HEINRICH HERTZ),2023-093A,2026-07-11T08:41:38.595264,1.00269979,.0000365,0.0138,97.5985,46.0458,276.7423,0,U,57213,999,1115,0,.8E-7,0
KUZGTU 1 (RS47S),2023-091AV,2026-07-11T11:48:34.955136,15.30416432,.0010478,97.5058,257.2264,19.3903,340.7734,0,U,57217,999,16809,.23467E-3,.6835E-4,0
QIANKUN-1,2023-103B,2026-07-09T12:23:52.426464,16.07683835,.0036275,96.1478,233.7894,139.5319,220.8675,0,U,57422,999,17088,.17456964E-4,.14836E-3,.1743906E-5
FENGYUN 3F,2023-111A,2026-07-11T11:54:23.361408,14.19943035,.0001344,98.6827,262.0508,78.1023,282.0304,0,U,57490,999,15231,.22941E-4,.5E-7,0
HJ-2F,2023-116A,2026-07-11T12:06:32.434848,15.22662315,.0006949,97.3846,197.3048,328.4610,31.6209,0,U,57519,999,16245,.19329E-3,.4432E-4,0
XRISM,2023-137A,2026-07-11T09:49:09.931008,15.12653502,.0007838,31.0007,202.6776,208.6647,151.3561,0,U,57800,999,15653,.12034E-3,.2256E-4,0
METEOR-M2 4,2024-039A,2026-07-11T12:31:19.458336,14.22431942,.0008236,98.7023,151.5156,97.9187,262.2926,0,U,59051,999,12272,.13383E-4,-.14E-6,0
GRBBETA,2024-128C,2026-07-11T07:27:10.573056,15.06792341,.0037525,61.9892,131.6189,139.8192,220.5686,0,U,60237,999,10990,.16151E-3,.2233E-4,0
TRANSPORTER-11 OBJECT A,2024-149A,2026-07-11T04:08:38.872896,15.33297885,.0004749,97.3730,272.0325,126.5666,233.6014,0,U,60468,999,10573,.17107E-3,.5426E-4,0
WARATAH SEED-1,2024-149B,2026-07-11T11:19:32.954880,15.36557209,.0003084,97.3687,273.0776,127.8541,232.2983,0,U,60469,999,10584,.23176E-3,.8189E-4,0
PHISAT 2,2024-149C,2026-07-09T04:49:25.105728,15.31364030,.00028906,97.3750,269.2980,133.4562,226.6921,0,U,60470,999,10536,.15877677E-3,.4732E-4,0
LEMUR-2-TOMATOKECHUP,2024-149D,2026-07-11T12:47:09.400416,15.36533766,.000313,97.3802,274.6484,128.8617,231.2907,0,U,60471,999,10590,.18442E-3,.6494E-4,0
CONNECTA IOT-1,2024-149E,2026-07-10T16:09:18.946080,15.23720794,.0002429,97.3754,267.5692,152.0524,208.0844,0,U,60472,999,10537,.1141E-3,.267E-4,0
LOPEN,2024-149F,2026-07-11T00:59:50.356320,15.40382665,.0002615,97.3775,275.6056,140.7290,219.4147,0,U,60473,999,10593,.24599E-3,.9856E-4,0
ROCK,2024-149G,2026-07-08T18:06:34.333056,15.40321242,.0002736,97.3767,273.3139,144.4938,215.6491,0,U,60474,999,10558,.27595597E-3,.11046E-3,0
CONNECTA IOT-3,2024-149H,2026-07-10T04:03:17.686944,15.23731231,.00035052,97.3727,266.8195,155.4468,204.6937,0,U,60475,999,10530,.12236852E-3,.287E-4,0
QUBE,2024-149J,2026-07-11T11:34:26.724000,15.48382728,.0003329,97.3768,279.4033,137.7119,222.4389,0,U,60476,999,10622,.31134E-3,.16409E-3,0
WREN-1,2024-149L,2026-07-10T04:06:39.533760,15.42489784,.00050595,97.3761,275.5386,166.2884,193.8501,0,U,60478,999,10586,.38700966E-3,.16702E-3,0
TOMORROW-S1,2024-149M,2026-07-10T04:18:57.849408,15.33047112,.00037268,97.3745,271.5833,142.2101,217.9404,0,U,60479,999,10561,.16838326E-3,.5297E-4,0
FLOCK 4BE-18,2024-149N,2026-07-10T04:18:13.375872,15.42627981,.00048093,97.3723,275.1601,158.3301,201.8151,0,U,60480,999,10585,.24256152E-3,.10476E-3,0
FLOCK 4BE-7,2024-149P,2026-07-11T04:22:17.220000,15.41340214,.0004099,97.3757,275.4708,159.0546,201.0870,0,U,60481,999,10594,.35433E-3,.14704E-3,0
TOMORROW-S2,2024-149T,2026-07-08T18:34:18.962112,15.33077157,.00032943,97.3813,270.6915,165.0151,195.1189,0,U,60485,999,10539,.17492718E-3,.5511E-4,0
FLOCK 4BE-36,2024-149U,2026-07-08T18:38:48.136128,15.43394438,.00042911,97.3738,274.4730,170.3083,189.8249,0,U,60486,999,10568,.27967151E-3,.12409E-3,0
FLOCK 4BE-25,2024-149V,2026-07-11T12:47:10.452768,15.39477501,.0003486,97.3798,275.8574,150.4404,209.7040,0,U,60487,999,10598,.21931E-3,.8519E-4,0
FLOCK 4BE-31,2024-149W,2026-07-09T01:06:53.876160,15.44977948,.00033799,97.3793,275.6689,166.3128,193.8213,0,U,60488,999,10575,.32502679E-3,.15235E-3,0
FLOCK 4BE-20,2024-149X,2026-07-10T12:47:03.560640,15.38726180,.0004628,97.3694,273.6700,165.1738,194.9644,0,U,60489,999,10580,.25405E-3,.9644E-4,0
